IRIDIUM 112             
1 41925U 17003J   23256.95520986  .00000356  00000+0  12019-3 0  9993
2 41925  86.4012 149.2822 0002026  90.3198 269.8230 14.34216107348905
IRIDIUM 111             
1 41926U 17003K   23256.66345154  .00000402  00000+0  13653-3 0  9991
2 41926  86.4015 149.4525 0002371  81.2513 278.8952 14.34220590348849
IRIDIUM 113             
1 42803U 17039A   23256.43410763  .00000542  00000+0  18644-3 0  9999
2 42803  86.4014  23.2720 0002338  94.2421 265.9042 14.34221873326741
IRIDIUM 123             
1 42804U 17039B   23256.89419628  .00000163  00000+0  51164-4 0  9993
2 42804  86.3946  54.5854 0002376  97.9625 262.1840 14.34219881325579
IRIDIUM 120             
1 42805U 17039C   23256.84638574  .00000521  00000+0  17882-3 0  9998
2 42805  86.4004  23.0130 0002195  91.5778 268.5669 14.34218618326793
IRIDIUM 115             
1 42806U 17039D   23256.88314779 -.00001094  00000+0 -33107-3 0  9997
2 42806  86.4536  22.9841 0002421  87.2939 272.8539 14.43310051328974
IRIDIUM 118             
1 42807U 17039E   23256.99569156  .00000176  00000+0  55759-4 0  9997
2 42807  86.3946  54.5454 0002092  93.4731 266.6704 14.34219347325599
IRIDIUM 117             
1 42808U 17039F   23256.87517032  .00000184  00000+0  58675-4 0  9990
2 42808  86.3945  54.5625 0002170  91.8410 268.3034 14.34219114325599
